STARLINK-31685          
1 59578U 24076Q   26075.73044326  .00000008  00000+0  98294-5 0  9996
2 59578  43.0032 328.8687 0001698 272.3283  87.7374 15.27567832107584
STARLINK-31668          
1 59580U 24076S   26075.72271439  .00004008  00000+0  15509-3 0  9995
2 59580  43.0008 328.8202 0000720 268.5401  91.5368 15.27581001107587
STARLINK-31662          
1 59584U 24076W   26075.70102612 -.00002756  00000+0 -90665-4 0  9990
2 59584  43.0060 329.5164 0001839 248.6243 111.4413 15.27577146107576
STARLINK-31806          
1 59640U 24082K   26075.76674104 -.00002009  00000+0 -63528-4 0  9995
2 59640  43.0035  99.8979 0000743 291.4060  68.6712 15.27569180105895
STARLINK-31796          
1 59646U 24082R   26075.75905763 -.00002423  00000+0 -78630-4 0  9998
2 59646  42.9999  99.8367 0001246 254.0460 106.0254 15.27553102106051
STARLINK-31787          
1 59650U 24082V   26074.78209623 -.00000483  00000+0 -80390-5 0  9998
2 59650  43.0046 105.4058 0000362 271.3816  88.6994 15.27569681105949
STARLINK-11092 [DTC]    
1 59710U 24088C   26075.85124373  .00001613  00000+0  18162-4 0  9999
2 59710  53.1575 291.2150 0000853 100.9327 259.1787 15.69714173107391
STARLINK-11108 [DTC]    
1 59712U 24088E   26075.84143256  .00003731  00000+0  35630-4 0  9993
2 59712  53.1575 291.1478 0000984 160.7030 199.4025 15.69713938107394
STARLINK-11103 [DTC]    
1 59718U 24088L   26075.87567141  .00000294  00000+0  72807-5 0  9994
2 59718  53.1592 290.6378 0000685 285.5233  74.5709 15.69711779107406
STARLINK-31817          
1 59731U 24090B   26075.55870778 -.00001707  00000+0 -52557-4 0  9991
2 59731  43.0037 144.4513 0001285 277.2572  82.8134 15.27552720104494
STARLINK-31819          
1 59738U 24090J   26074.92537357  .00000927  00000+0  43226-4 0  9995
2 59738  43.0080 148.2892 0001717 256.3538 103.7122 15.27573800104392
STARLINK-31759          
1 59740U 24090L   26075.60236846 -.00012953  00000+0 -46133-3 0  9996
2 59740  42.9992 144.7710 0001483 258.5987 101.4699 15.27625954104490
STARLINK-31818          
1 59741U 24090M   26075.59465755 -.00006713  00000+0 -23441-3 0  9992
2 59741  43.0018 144.7142 0002195 271.5590  88.5010 15.27608482104496
