
    {
      "objectName": "STARLINK-31685",
      "objectId": "2024-076Q",
      "noradId": 59578,
      "epochUtc": "2026-03-16T17:31:50.297664Z",
      "meanMotionRevPerDay": 15.27567832,
      "eccentricity": 0.0001698,
      "inclinationDeg": 43.0032,
      "raanDeg": 328.8687,
      "argPerigeeDeg": 272.3283,
      "meanAnomalyDeg": 87.7374,
      "bstar": 0.0000098294,
      "meanMotionDot": 8e-8,
      "meanMotionDdot": 0,
      "elementSetNo": 999,
      "revAtEpoch": 10758
    },
    {
      "objectName": "STARLINK-31668",
      "objectId": "2024-076S",
      "noradId": 59580,
      "epochUtc": "2026-03-16T17:20:42.523296Z",
      "meanMotionRevPerDay": 15.27581001,
      "eccentricity": 0.000072,
      "inclinationDeg": 43.0008,
      "raanDeg": 328.8202,
      "argPerigeeDeg": 268.5401,
      "meanAnomalyDeg": 91.5368,
      "bstar": 0.00015509,
      "meanMotionDot": 0.00004008,
      "meanMotionDdot": 0,
      "elementSetNo": 999,
      "revAtEpoch": 10758
    },
    {
      "objectName": "STARLINK-31662",
      "objectId": "2024-076W",
      "noradId": 59584,
      "epochUtc": "2026-03-16T16:49:28.656768Z",
      "meanMotionRevPerDay": 15.27577146,
      "eccentricity": 0.0001839,
      "inclinationDeg": 43.006,
      "raanDeg": 329.5164,
      "argPerigeeDeg": 248.6243,
      "meanAnomalyDeg": 111.4413,
      "bstar": -0.000090665,
      "meanMotionDot": -0.00002756,
      "meanMotionDdot": 0,
      "elementSetNo": 999,
      "revAtEpoch": 10757
    },
    {
      "objectName": "STARLINK-31806",
      "objectId": "2024-082K",
      "noradId": 59640,
      "epochUtc": "2026-03-16T18:24:06.425856Z",
      "meanMotionRevPerDay": 15.2756918,
      "eccentricity": 0.0000743,
      "inclinationDeg": 43.0035,
      "raanDeg": 99.8979,
      "argPerigeeDeg": 291.406,
      "meanAnomalyDeg": 68.6712,
      "bstar": -0.000063528,
      "meanMotionDot": -0.00002009,
      "meanMotionDdot": 0,
      "elementSetNo": 999,
      "revAtEpoch": 10589
    },
    {
      "objectName": "STARLINK-31796",
      "objectId": "2024-082R",
      "noradId": 59646,
      "epochUtc": "2026-03-16T18:13:02.579232Z",
      "meanMotionRevPerDay": 15.27553102,
      "eccentricity": 0.0001246,
      "inclinationDeg": 42.9999,
      "raanDeg": 99.8367,
      "argPerigeeDeg": 254.046,
      "meanAnomalyDeg": 106.0254,
      "bstar": -0.00007863,
      "meanMotionDot": -0.00002423,
      "meanMotionDdot": 0,
      "elementSetNo": 999,
      "revAtEpoch": 10605
    },
    {
      "objectName": "STARLINK-31787",
      "objectId": "2024-082V",
      "noradId": 59650,
      "epochUtc": "2026-03-15T18:46:13.114272Z",
      "meanMotionRevPerDay": 15.27569681,
      "eccentricity": 0.00003625,
      "inclinationDeg": 43.0046,
      "raanDeg": 105.4058,
      "argPerigeeDeg": 271.3816,
      "meanAnomalyDeg": 88.6994,
      "bstar": -0.000008038996,
      "meanMotionDot": -0.00000483,
      "meanMotionDdot": 0,
      "elementSetNo": 999,
      "revAtEpoch": 10594
    },
    {
      "objectName": "STARLINK-11092 [DTC]",
      "objectId": "2024-088C",
      "noradId": 59710,
      "epochUtc": "2026-03-16T20:25:47.458272Z",
      "meanMotionRevPerDay": 15.69714173,
      "eccentricity": 0.0000853,
      "inclinationDeg": 53.1575,
      "raanDeg": 291.215,
      "argPerigeeDeg": 100.9327,
      "meanAnomalyDeg": 259.1787,
      "bstar": 0.000018162,
      "meanMotionDot": 0.00001613,
      "meanMotionDdot": 0,
      "elementSetNo": 999,
      "revAtEpoch": 10739
    },
    {
      "objectName": "STARLINK-11108 [DTC]",
      "objectId": "2024-088E",
      "noradId": 59712,
      "epochUtc": "2026-03-16T20:11:39.773184Z",
      "meanMotionRevPerDay": 15.69713938,
      "eccentricity": 0.0000984,
      "inclinationDeg": 53.1575,
      "raanDeg": 291.1478,
      "argPerigeeDeg": 160.703,
      "meanAnomalyDeg": 199.4025,
      "bstar": 0.00003563,
      "meanMotionDot": 0.00003731,
      "meanMotionDdot": 0,
      "elementSetNo": 999,
      "revAtEpoch": 10739
    },
    {
      "objectName": "STARLINK-11103 [DTC]",
      "objectId": "2024-088L",
      "noradId": 59718,
      "epochUtc": "2026-03-16T21:00:58.009824Z",
      "meanMotionRevPerDay": 15.69711779,
      "eccentricity": 0.0000685,
      "inclinationDeg": 53.1592,
      "raanDeg": 290.6378,
      "argPerigeeDeg": 285.5233,
      "meanAnomalyDeg": 74.5709,
      "bstar": 0.0000072807,
      "meanMotionDot": 0.00000294,
      "meanMotionDdot": 0,
      "elementSetNo": 999,
      "revAtEpoch": 10740
    },
    {
      "objectName": "STARLINK-31817",
      "objectId": "2024-090B",
      "noradId": 59731,
      "epochUtc": "2026-03-16T13:24:32.352192Z",
      "meanMotionRevPerDay": 15.2755272,
      "eccentricity": 0.0001285,
      "inclinationDeg": 43.0037,
      "raanDeg": 144.4513,
      "argPerigeeDeg": 277.2572,
      "meanAnomalyDeg": 82.8134,
      "bstar": -0.000052557,
      "meanMotionDot": -0.00001707,
      "meanMotionDdot": 0,
      "elementSetNo": 999,
      "revAtEpoch": 10449
    },
    {
      "objectName": "STARLINK-31819",
      "objectId": "2024-090J",
      "noradId": 59738,
      "epochUtc": "2026-03-15T22:12:32.276448Z",
      "meanMotionRevPerDay": 15.275738,
      "eccentricity": 0.0001717,
      "inclinationDeg": 43.008,
      "raanDeg": 148.2892,
      "argPerigeeDeg": 256.3538,
      "meanAnomalyDeg": 103.7122,
      "bstar": 0.000043225749,
      "meanMotionDot": 0.00000927,
      "meanMotionDdot": 0,
      "elementSetNo": 999,
      "revAtEpoch": 10439
    },
    {
      "objectName": "STARLINK-31759",
      "objectId": "2024-090L",
      "noradId": 59740,
      "epochUtc": "2026-03-16T14:27:24.634944Z",
      "meanMotionRevPerDay": 15.27625954,
      "eccentricity": 0.0001483,
      "inclinationDeg": 42.9992,
      "raanDeg": 144.771,
      "argPerigeeDeg": 258.5987,
      "meanAnomalyDeg": 101.4699,
      "bstar": -0.00046133,
      "meanMotionDot": -0.00012953,
      "meanMotionDdot": 0,
      "elementSetNo": 999,
      "revAtEpoch": 10449
    },
    {
      "objectName": "STARLINK-31818",
      "objectId": "2024-090M",
      "noradId": 59741,
      "epochUtc": "2026-03-16T14:16:18.412320Z",
      "meanMotionRevPerDay": 15.27608482,
      "eccentricity": 0.0002195,
      "inclinationDeg": 43.0018,
      "raanDeg": 144.7142,
      "argPerigeeDeg": 271.559,
      "meanAnomalyDeg": 88.501,
      "bstar": -0.00023441,
      "meanMotionDot": -0.00006713,
      "meanMotionDdot": 0,
      "elementSetNo": 999,
      "revAtEpoch": 10449
    }